$$SOE
2461281.500000000, A.D. 2026-Aug-29 00:00:00.0000, -6.400989475686517E+09, -1.339686594402007E+09, -1.861130719111229E+09,
2461288.500000000, A.D. 2026-Sep-05 00:00:00.0000, -6.400493907062090E+09, -1.342222309333313E+09, -1.861439414134071E+09,
2461295.500000000, A.D. 2026-Sep-12 00:00:00.0000, -6.399997320200794E+09, -1.344757865929789E+09, -1.861747821532057E+09,
2461302.500000000, A.D. 2026-Sep-19 00:00:00.0000, -6.399499716786523E+09, -1.347293264792043E+09, -1.862055941118374E+09,
2461309.500000000, A.D. 2026-Sep-26 00:00:00.0000, -6.399001098124844E+09, -1.349828507102951E+09, -1.862363772754328E+09,
2461316.500000000, A.D. 2026-Oct-03 00:00:00.0000, -6.398501465072740E+09, -1.352363594392288E+09, -1.862671316339657E+09,
2461323.500000000, A.D. 2026-Oct-10 00:00:00.0000, -6.398000818054969E+09, -1.354898528394055E+09, -1.862978571803418E+09,
2461330.500000000, A.D. 2026-Oct-17 00:00:00.0000, -6.397499157115338E+09, -1.357433310977344E+09, -1.863285539098520E+09,
2461337.500000000, A.D. 2026-Oct-24 00:00:00.0000, -6.396996481978551E+09, -1.359967944173291E+09, -1.863592218203925E+09,
2461344.500000000, A.D. 2026-Oct-31 00:00:00.0000, -6.396492792023837E+09, -1.362502430364758E+09, -1.863898609148868E+09,
2461351.500000000, A.D. 2026-Nov-07 00:00:00.0000, -6.395988085831306E+09, -1.365036772564644E+09, -1.864204712084008E+09,
2461358.500000000, A.D. 2026-Nov-14 00:00:00.0000, -6.395482360100142E+09, -1.367570973895412E+09, -1.864510527345179E+09,
2461365.500000000, A.D. 2026-Nov-21 00:00:00.0000, -6.394975609750399E+09, -1.370105035587951E+09, -1.864816055287646E+09,
2461372.500000000, A.D. 2026-Nov-28 00:00:00.0000, -6.394467830206495E+09, -1.372638956507837E+09, -1.865121296044862E+09,
2461379.500000000, A.D. 2026-Dec-05 00:00:00.0000, -6.393959018242847E+09, -1.375172734865314E+09, -1.865426249597075E+09,
2461386.500000000, A.D. 2026-Dec-12 00:00:00.0000, -6.393449171226747E+09, -1.377706368998041E+09, -1.865730915910367E+09,
2461393.500000000, A.D. 2026-Dec-19 00:00:00.0000, -6.392938286645715E+09, -1.380239857220132E+09, -1.866035294972254E+09,
2461400.500000000, A.D. 2026-Dec-26 00:00:00.0000, -6.392426362061802E+09, -1.382773197605611E+09, -1.866339386781508E+09,
2461407.500000000, A.D. 2027-Jan-02 00:00:00.0000, -6.391913395217206E+09, -1.385306387897286E+09, -1.866643191332909E+09,
2461414.500000000, A.D. 2027-Jan-09 00:00:00.0000, -6.391399384174939E+09, -1.387839425521059E+09, -1.866946708605915E+09,
2461421.500000000, A.D. 2027-Jan-16 00:00:00.0000, -6.390884327460200E+09, -1.390372307697063E+09, -1.867249938559660E+09,
2461428.500000000, A.D. 2027-Jan-23 00:00:00.0000, -6.390368224157894E+09, -1.392905031687470E+09, -1.867552881141737E+09,
2461435.500000000, A.D. 2027-Jan-30 00:00:00.0000, -6.389851073780195E+09, -1.395437595228925E+09, -1.867855536331921E+09,
2461442.500000000, A.D. 2027-Feb-06 00:00:00.0000, -6.389332875481017E+09, -1.397969996809748E+09, -1.868157904232079E+09,
2461449.500000000, A.D. 2027-Feb-13 00:00:00.0000, -6.388813627079299E+09, -1.400502234572346E+09, -1.868459985060512E+09,
2461456.500000000, A.D. 2027-Feb-20 00:00:00.0000, -6.388293326256297E+09, -1.403034304631934E+09, -1.868761778898744E+09,
2461463.500000000, A.D. 2027-Feb-27 00:00:00.0000, -6.387771972531914E+09, -1.405566202025283E+09, -1.869063285581605E+09,
2461470.500000000, A.D. 2027-Mar-06 00:00:00.0000, -6.387249567002555E+09, -1.408097922366946E+09, -1.869364504850519E+09,
2461477.500000000, A.D. 2027-Mar-13 00:00:00.0000, -6.386726111441067E+09, -1.410629462163482E+09, -1.869665436455915E+09,
2461484.500000000, A.D. 2027-Mar-20 00:00:00.0000, -6.386201607888322E+09, -1.413160818620359E+09, -1.869966080173584E+09,
2461491.500000000, A.D. 2027-Mar-27 00:00:00.0000, -6.385676058534485E+09, -1.415691989490439E+09, -1.870266435798495E+09,
2461498.500000000, A.D. 2027-Apr-03 00:00:00.0000, -6.385149465687044E+09, -1.418222973011813E+09, -1.870566503138704E+09,
2461505.500000000, A.D. 2027-Apr-10 00:00:00.0000, -6.384621831764391E+09, -1.420753767911903E+09, -1.870866282013146E+09,
2461512.500000000, A.D. 2027-Apr-17 00:00:00.0000, -6.384093159292869E+09, -1.423284373492150E+09, -1.871165772256569E+09,
2461519.500000000, A.D. 2027-Apr-24 00:00:00.0000, -6.383563450828043E+09, -1.425814789855450E+09, -1.871464973743967E+09,
2461526.500000000, A.D. 2027-May-01 00:00:00.0000, -6.383032708500625E+09, -1.428345018248523E+09, -1.871763886459730E+09,
2461533.500000000, A.D. 2027-May-08 00:00:00.0000, -6.382500932879590E+09, -1.430875060770823E+09, -1.872062510578537E+09,
2461540.500000000, A.D. 2027-May-15 00:00:00.0000, -6.381968122649388E+09, -1.433404918496554E+09, -1.872360846342749E+09,
2461547.500000000, A.D. 2027-May-22 00:00:00.0000, -6.381434276665135E+09, -1.435934590601398E+09, -1.872658893804670E+09,
2461554.500000000, A.D. 2027-May-29 00:00:00.0000, -6.380899395029813E+09, -1.438464075962200E+09, -1.872956652861340E+09,
2461561.500000000, A.D. 2027-Jun-05 00:00:00.0000, -6.380363478308663E+09, -1.440993374097883E+09, -1.873254123407034E+09,
2461568.500000000, A.D. 2027-Jun-12 00:00:00.0000, -6.379826526888320E+09, -1.443522485019767E+09, -1.873551305383917E+09,
2461575.500000000, A.D. 2027-Jun-19 00:00:00.0000, -6.379288540811654E+09, -1.446051408926336E+09, -1.873848198776777E+09,
2461582.500000000, A.D. 2027-Jun-26 00:00:00.0000, -6.378749519808966E+09, -1.448580146003738E+09, -1.874144803598622E+09,
2461589.500000000, A.D. 2027-Jul-03 00:00:00.0000, -6.378209463393365E+09, -1.451108696323746E+09, -1.874441119878390E+09,
2461596.500000000, A.D. 2027-Jul-10 00:00:00.0000, -6.377668370983508E+09, -1.453637059830433E+09, -1.874737147653173E+09,
2461603.500000000, A.D. 2027-Jul-17 00:00:00.0000, -6.377126242017329E+09, -1.456165236454447E+09, -1.875032886971244E+09,
2461610.500000000, A.D. 2027-Jul-24 00:00:00.0000, -6.376583075900372E+09, -1.458693226417664E+09, -1.875328337925093E+09,
2461617.500000000, A.D. 2027-Jul-31 00:00:00.0000, -6.376038871377252E+09, -1.461221030492728E+09, -1.875623500732749E+09,
2461624.500000000, A.D. 2027-Aug-07 00:00:00.0000, -6.375493625526986E+09, -1.463748649065740E+09, -1.875918375754674E+09,
2461631.500000000, A.D. 2027-Aug-14 00:00:00.0000, -6.374947334683339E+09, -1.466276080255408E+09, -1.876212963255759E+09,
2461638.500000000, A.D. 2027-Aug-21 00:00:00.0000, -6.374399996661904E+09, -1.468803320452834E+09, -1.876507263244030E+09,
2461645.500000000, A.D. 2027-Aug-28 00:00:00.0000, -6.373851610862925E+09, -1.471330366078739E+09, -1.876801275602446E+09,
2461652.500000000, A.D. 2027-Sep-04 00:00:00.0000, -6.373302177430955E+09, -1.473857214055800E+09, -1.877095000201071E+09,
2461659.500000000, A.D. 2027-Sep-11 00:00:00.0000, -6.372751696866693E+09, -1.476383861657410E+09, -1.877388436915909E+09,
2461666.500000000, A.D. 2027-Sep-18 00:00:00.0000, -6.372200169957808E+09, -1.478910306382938E+09, -1.877681585619990E+09,
2461673.500000000, A.D. 2027-Sep-25 00:00:00.0000, -6.371647597799879E+09, -1.481436545936886E+09, -1.877974446174289E+09,
2461680.500000000, A.D. 2027-Oct-02 00:00:00.0000, -6.371093981832404E+09, -1.483962578284041E+09, -1.878267018423401E+09,
2461687.500000000, A.D. 2027-Oct-09 00:00:00.0000, -6.370539323867340E+09, -1.486488401784738E+09, -1.878559302198639E+09,
2461694.500000000, A.D. 2027-Oct-16 00:00:00.0000, -6.369983626046928E+09, -1.489014015464684E+09, -1.878851297339058E+09,
2461701.500000000, A.D. 2027-Oct-23 00:00:00.0000, -6.369426890470788E+09, -1.491539419424642E+09, -1.879143003754901E+09,
2461708.500000000, A.D. 2027-Oct-30 00:00:00.0000, -6.368869118117412E+09, -1.494064614779299E+09, -1.879434421518091E+09,
2461715.500000000, A.D. 2027-Nov-06 00:00:00.0000, -6.368310308223426E+09, -1.496589601996900E+09, -1.879725550780981E+09,
2461722.500000000, A.D. 2027-Nov-13 00:00:00.0000, -6.367750460105936E+09, -1.499114379715616E+09, -1.880016391510988E+09,
2461729.500000000, A.D. 2027-Nov-20 00:00:00.0000, -6.367189574526060E+09, -1.501638946222363E+09, -1.880306943485936E+09,
2461736.500000000, A.D. 2027-Nov-27 00:00:00.0000, -6.366627652976056E+09, -1.504163300629489E+09, -1.880597206456148E+09,
2461743.500000000, A.D. 2027-Dec-04 00:00:00.0000, -6.366064696913552E+09, -1.506687442835312E+09, -1.880887180212994E+09,
2461750.500000000, A.D. 2027-Dec-11 00:00:00.0000, -6.365500707493486E+09, -1.509211373232407E+09, -1.881176864592100E+09,
2461757.500000000, A.D. 2027-Dec-18 00:00:00.0000, -6.364935685522749E+09, -1.511735092502638E+09, -1.881466259464104E+09,
2461764.500000000, A.D. 2027-Dec-25 00:00:00.0000, -6.364369631485554E+09, -1.514258601501001E+09, -1.881755364726956E+09,
2461771.500000000, A.D. 2028-Jan-01 00:00:00.0000, -6.363802545598102E+09, -1.516781901213578E+09, -1.882044180302283E+09,
$$EOE